[{"OBJECT_NAME":"STARLINK-1627","OBJECT_ID":"2020-057BD","EPOCH":"2026-03-10T00:00:02.999808","MEAN_MOTION":15.7182535,"ECCENTRICITY":0.00032384,"INCLINATION":53.043,"RA_OF_ASC_NODE":223.2369,"ARG_OF_PERICENTER":42.9244,"MEAN_ANOMALY":228.4026,"EPHEMERIS_TYPE":0,"CLASSIFICATION_TYPE":"U","NORAD_CAT_ID":46168,"ELEMENT_SET_NO":999,"REV_AT_EPOCH":596,"BSTAR":0.00036555083,"MEAN_MOTION_DOT":0.00048075,"MEAN_MOTION_DDOT":0},{"OBJECT_NAME":"STARLINK-11695 [DTC]","OBJECT_ID":"2025-075D","EPOCH":"2026-03-09T15:04:38.989056","MEAN_MOTION":15.70890769,"ECCENTRICITY":9.99e-5,"INCLINATION":42.9989,"RA_OF_ASC_NODE":153.752,"ARG_OF_PERICENTER":319.8733,"MEAN_ANOMALY":40.206,"EPHEMERIS_TYPE":0,"CLASSIFICATION_TYPE":"U","NORAD_CAT_ID":63551,"ELEMENT_SET_NO":999,"REV_AT_EPOCH":5324,"BSTAR":0.001921,"MEAN_MOTION_DOT":0.00254272,"MEAN_MOTION_DDOT":0}]
